STARLINK-1271           
1 45217U 20012AR  26068.25754237  .00003935  00000+0  14487-3 0  9997
2 45217  53.1602  25.9675 0001421  94.3231 265.7932 15.30210928335097
NUSHSAT1                
1 63211U 25052B   26068.64700493  .00023034  00000+0  74857-3 0  9997
2 63211  97.4095 325.7239 0005501  84.7512 275.4357 15.31903202 54882
